IRIDIUM 57              
1 25273U 98019B   24208.32745005  .00000594  00000+0  20070-3 0  9997
2 25273  86.3949 281.7269 0002267  93.4724 266.6732 14.35298497378036
IRIDIUM 63              
1 25286U 98021B   24208.54519757  .00000626  00000+0  20940-3 0  9993
2 25286  86.3978 218.5377 0002128  92.9230 267.2210 14.35846747377104
IRIDIUM 69              
1 25319U 98026A   24208.42830331  .00000730  00000+0  22529-3 0  9997
2 25319  86.3957 232.8521 0003698  54.6546 305.4998 14.40099239376161
IRIDIUM 71              
1 25320U 98026B   24208.55885815  .00000661  00000+0  20216-3 0  9994
2 25320  86.3960 227.5507 0004444  86.2599 273.9108 14.40404694376708
IRIDIUM 73              
1 25344U 98032C   24208.68917278  .00001081  00000+0  27028-3 0  9995
2 25344  86.4454 184.8903 0002670  76.6561 283.4942 14.50655907383659
IRIDIUM 82              
1 25467U 98051A   24208.41391832  .00017715  00000+0  85079-3 0  9996
2 25467  86.3730 267.1406 0125911  76.8304 284.6947 15.11872688374412
